FLOCK 4G-7              
1 62624U 25009R   26068.79996108  .00011422  00000+0  43168-3 0  9991
2 62624  97.3984 150.8270 0001396 336.9783  23.1393 15.27141471 63725
STARLINK-36101          
1 66867U 25281V   26068.18094528  .00035260  00000+0  12848-2 0  9990
2 66867  42.9984 346.6993 0000609 308.8526  51.2271 15.27578133 16094
